OBJECT_NAME,OBJECT_ID,EPOCH,MEAN_MOTION,ECCENTRICITY,INCLINATION,RA_OF_ASC_NODE,ARG_OF_PERICENTER,MEAN_ANOMALY,EPHEMERIS_TYPE,CLASSIFICATION_TYPE,NORAD_CAT_ID,ELEMENT_SET_NO,REV_AT_EPOCH,BSTAR,MEAN_MOTION_DOT,MEAN_MOTION_DDOT
SKYSAT-C1,2016-040C,2026-06-05T19:36:44.815968,15.36103873,.000424,96.9565,189.1548,80.2732,279.8991,0,U,41601,999,55612,.32775E-3,.11459E-3,0
LAPAN-A3,2016-040E,2026-06-06T06:58:54.615360,15.33035634,.0011928,97.1490,153.7956,60.7215,299.5218,0,U,41603,999,55314,.12952593E-3,.4066E-4,0
GAOFEN-3,2016-049A,2026-06-06T07:55:44.603040,14.42214306,.0001163,98.4013,165.2806,97.0308,263.1014,0,U,41727,999,51708,.34977004E-4,.72E-6,0
SKYSAT-C4,2016-058B,2026-06-05T07:29:00.860064,15.48200882,.00009713,96.9178,178.5840,78.7321,281.4039,0,U,41771,999,54363,.29904111E-3,.15661E-3,0
SKYSAT-C5,2016-058C,2026-06-05T08:45:52.829856,15.34293561,.00024368,97.0473,197.5342,14.9757,345.1558,0,U,41772,999,54193,.22720104E-3,.747E-4,0
SKYSAT-C2,2016-058D,2026-06-05T18:32:49.929504,15.41804845,.00052059,97.0171,179.2995,94.6051,265.5792,0,U,41773,999,54329,.36429803E-3,.15365E-3,0
SKYSAT-C3,2016-058E,2026-06-05T08:18:54.899136,15.52014879,.00020783,96.9013,187.6532,80.7564,279.3925,0,U,41774,999,54427,.33338845E-3,.19999E-3,0
ALSAT-1B,2016-059C,2026-06-06T07:09:11.617632,14.72266230,.00077117,97.7753,166.5319,261.8843,98.1490,0,U,41785,999,51897,.54769686E-4,.299E-5,0
PATHFINDER 1,2016-059E,2026-06-05T21:17:43.107072,14.67650472,.00270979,97.8166,156.6737,240.9679,118.8811,0,U,41787,999,51805,.13243887E-3,.71E-5,0
SCATSAT 1,2016-059H,2026-06-05T02:34:36.184800,14.79499810,.0053316,98.1196,219.7487,287.3684,72.1701,0,U,41790,999,9980,.16352E-3,.1194E-4,0
GOKTURK 1A,2016-073A,2026-06-06T05:35:02.402880,14.62767427,.0001476,98.1260,52.0782,75.1123,285.0243,0,U,41875,999,50722,.13406969E-3,.637E-5,0
RESOURCESAT-2A,2016-074A,2026-06-06T07:15:20.428992,14.21613575,.00033127,98.7523,230.8952,103.6388,256.5158,0,U,41877,999,49275,.1199716E-3,.219E-5,0
CARTOSAT-2D,2017-008A,2026-06-05T15:10:45.234336,15.19236200,.00037278,97.4122,216.1531,285.1069,74.9753,0,U,41948,999,51582,-.99469042E-4,-.216E-4,0
SENTINEL-2B,2017-013A,2026-06-06T07:09:40.478688,14.30814468,.0001218,98.5688,232.2260,84.7671,275.3650,0,U,42063,999,48308,.11189922E-3,.25E-5,0
CARTOSAT-2E,2017-036C,2026-06-06T07:24:30.879072,15.19237020,.00033079,97.4274,217.2899,4.6066,355.5198,0,U,42767,999,49649,.27754793E-3,.5781E-4,0
FORMOSAT-5,2017-049A,2026-06-05T22:47:41.658144,14.50894706,.0012612,98.2253,232.5090,115.3801,244.8702,0,U,42920,999,46504,.65932342E-4,.217E-5,0
SENTINEL-5P,2017-064A,2026-06-06T01:33:43.431264,14.19517085,.00009796,98.7922,99.2757,80.9194,279.2093,0,U,42969,999,44798,.53616352E-4,.69E-6,0
SKYSAT-C11,2017-068A,2026-06-06T03:15:43.761024,15.57313292,.00011269,97.4346,305.4915,86.8611,273.2773,0,U,42987,999,48152,.5197179E-3,.37958E-3,0
SKYSAT-C10,2017-068B,2026-06-05T21:08:33.596160,15.34442038,.00012981,97.4497,293.6207,89.3365,270.8026,0,U,42988,999,48062,.38540916E-3,.12783E-3,0
SKYSAT-C9,2017-068C,2026-06-06T03:18:53.402112,15.41284054,.00088351,97.4417,294.7105,168.6101,191.5347,0,U,42989,999,48105,.42108198E-3,.17481E-3,0
SKYSAT-C8,2017-068D,2026-06-06T03:06:57.162528,15.36755819,.00015955,97.4514,293.6299,98.6344,261.5081,0,U,42990,999,48061,.40641688E-3,.14523E-3,0
SKYSAT-C7,2017-068E,2026-06-06T02:57:13.487328,15.36702319,.00069135,97.4525,294.6118,139.2729,220.9033,0,U,42991,999,48067,.40599908E-3,.14493E-3,0
SKYSAT-C6,2017-068F,2026-06-05T20:42:08.622720,15.34010702,.00039073,97.4555,294.3585,168.8900,191.2430,0,U,42992,999,48058,.36357837E-3,.11891E-3,0
CARTOSAT-2F,2018-004A,2026-06-06T06:35:36.127680,15.19290028,.00001946,97.4789,217.0154,37.2151,322.9097,0,U,43111,999,46567,.25353107E-3,.5282E-4,0
GAOFEN-1 02,2018-031A,2026-06-06T07:40:19.659072,14.76464938,.00044449,98.0525,219.8764,57.3464,302.8174,0,U,43259,999,44109,.76918335E-4,.484E-5,0
GAOFEN-1 03,2018-031B,2026-06-06T07:08:52.308960,14.76453835,.00038198,98.0526,219.7143,100.8686,259.2953,0,U,43260,999,44108,.12994525E-3,.853E-5,0
GAOFEN-1 04,2018-031D,2026-06-06T06:33:56.204352,14.76464436,.00022114,98.0527,219.8795,93.6127,266.5335,0,U,43262,999,44107,.16512182E-3,.1098E-4,0
SENTINEL-3B,2018-039A,2026-06-05T11:28:20.737920,14.26738325,.00009372,98.6250,224.1778,75.1452,284.9833,0,U,43437,999,42245,.68428198E-4,.122E-5,0
GAOFEN-5 01,2018-043A,2026-06-06T04:03:54.816480,14.60597921,.00029553,98.4564,128.5247,103.1269,257.0261,0,U,43461,999,43008,.95562758E-4,.415E-5,0
GAOFEN-6,2018-048A,2026-06-06T07:07:09.053184,14.76621055,.00111764,97.7758,220.3799,204.3434,155.7250,0,U,43484,999,43178,.13798179E-3,.915E-5,0
