SKYSAT-C1               
1 41601U 16040C   26156.81718537  .00011459  00000+0  32775-3 0  9999
2 41601  96.9565 189.1548 0004240  80.2732 279.8991 15.36103873556123
LAPAN-A3                
1 41603U 16040E   26157.29090990  .00004066  00000+0  12953-3 0  9992
2 41603  97.1490 153.7956 0011928  60.7215 299.5218 15.33035634553141
GAOFEN-3                
1 41727U 16049A   26157.33037735  .00000072  00000+0  34977-4 0  9995
2 41727  98.4013 165.2806 0001163  97.0308 263.1014 14.42214306517089
SKYSAT-C4               
1 41771U 16058B   26156.31181551  .00015661  00000+0  29904-3 0  9990
2 41771  96.9178 178.5840 0000971  78.7321 281.4039 15.48200882543636
SKYSAT-C5               
1 41772U 16058C   26156.36519479  .00007470  00000+0  22720-3 0  9998
2 41772  97.0473 197.5342 0002436  14.9757 345.1558 15.34293561541934
SKYSAT-C2               
1 41773U 16058D   26156.77280011  .00015365  00000+0  36430-3 0  9996
2 41773  97.0171 179.2995 0005205  94.6051 265.5792 15.41804845543297
SKYSAT-C3               
1 41774U 16058E   26156.34646874  .00019999  00000+0  33339-3 0  9995
2 41774  96.9013 187.6532 0002078  80.7564 279.3925 15.52014879544273
ALSAT-1B                
1 41785U 16059C   26157.29805113  .00000299  00000+0  54770-4 0  9992
2 41785  97.7753 166.5319 0007711 261.8843  98.1490 14.72266230518978
PATHFINDER 1            
1 41787U 16059E   26156.88730448  .00000710  00000+0  13244-3 0  9994
2 41787  97.8166 156.6737 0027097 240.9679 118.8811 14.67650472518052
SCATSAT 1               
1 41790U 16059H   26156.10736325  .00001194  00000+0  16352-3 0  9993
2 41790  98.1196 219.7487 0053316 287.3684  72.1701 14.79499810 99807
GOKTURK 1A              
1 41875U 16073A   26157.23266670  .00000637  00000+0  13407-3 0  9998
2 41875  98.1260  52.0782 0001476  75.1123 285.0243 14.62767427507220
RESOURCESAT-2A          
1 41877U 16074A   26157.30231978  .00000219  00000+0  11997-3 0  9990
2 41877  98.7523 230.8952 0003312 103.6388 256.5158 14.21613575492754
CARTOSAT-2D             
1 41948U 17008A   26156.63246799 -.00002160  00000+0 -99469-4 0  9999
2 41948  97.4122 216.1531 0003727 285.1069  74.9753 15.19236200515827
SENTINEL-2B             
1 42063U 17013A   26157.29838517  .00000250  00000+0  11190-3 0  9992
2 42063  98.5688 232.2260 0001218  84.7671 275.3650 14.30814468483083
CARTOSAT-2E             
1 42767U 17036C   26157.30869073  .00005781  00000+0  27755-3 0  9999
2 42767  97.4274 217.2899 0003307   4.6066 355.5198 15.19237020496492
FORMOSAT-5              
1 42920U 17049A   26156.94978771  .00000217  00000+0  65932-4 0  9998
2 42920  98.2253 232.5090 0012612 115.3801 244.8702 14.50894706465040
SENTINEL-5P             
1 42969U 17064A   26157.06508601  .00000069  00000+0  53616-4 0  9994
2 42969  98.7922  99.2757 0000979  80.9194 279.2093 14.19517085447989
SKYSAT-C11              
1 42987U 17068A   26157.13592316  .00037958  00000+0  51972-3 0  9991
2 42987  97.4346 305.4915 0001126  86.8611 273.2773 15.57313292481521
SKYSAT-C10              
1 42988U 17068B   26156.88094440  .00012783  00000+0  38541-3 0  9994
2 42988  97.4497 293.6207 0001298  89.3365 270.8026 15.34442038480625
SKYSAT-C9               
1 42989U 17068C   26157.13811808  .00017481  00000+0  42108-3 0  9993
2 42989  97.4417 294.7105 0008835 168.6101 191.5347 15.41284054481053
SKYSAT-C8               
1 42990U 17068D   26157.12982827  .00014523  00000+0  40642-3 0  9999
2 42990  97.4514 293.6299 0001595  98.6344 261.5081 15.36755819480612
SKYSAT-C7               
1 42991U 17068E   26157.12307277  .00014493  00000+0  40600-3 0  9990
2 42991  97.4525 294.6118 0006913 139.2729 220.9033 15.36702319480673
SKYSAT-C6               
1 42992U 17068F   26156.86259980  .00011891  00000+0  36358-3 0  9992
2 42992  97.4555 294.3585 0003907 168.8900 191.2430 15.34010702480588
CARTOSAT-2F             
1 43111U 18004A   26157.27472370  .00005282  00000+0  25353-3 0  9993
2 43111  97.4789 217.0154 0000194  37.2151 322.9097 15.19290028465676
GAOFEN-1 02             
1 43259U 18031A   26157.31967198  .00000484  00000+0  76918-4 0  9991
2 43259  98.0525 219.8764 0004444  57.3464 302.8174 14.76464938441091
GAOFEN-1 03             
1 43260U 18031B   26157.29782765  .00000853  00000+0  12995-3 0  9999
2 43260  98.0526 219.7143 0003819 100.8686 259.2953 14.76453835441082
GAOFEN-1 04             
1 43262U 18031D   26157.27356718  .00001098  00000+0  16512-3 0  9995
2 43262  98.0527 219.8795 0002211  93.6127 266.5335 14.76464436441076
SENTINEL-3B             
1 43437U 18039A   26156.47801780  .00000122  00000+0  68428-4 0  9993
2 43437  98.6250 224.1778 0000937  75.1452 284.9833 14.26738325422452
GAOFEN-5 01             
1 43461U 18043A   26157.16938445  .00000415  00000+0  95563-4 0  9996
2 43461  98.4564 128.5247 0002955 103.1269 257.0261 14.60597921430080
GAOFEN-6                
1 43484U 18048A   26157.29663256  .00000915  00000+0  13798-3 0  9999
2 43484  97.7758 220.3799 0011176 204.3434 155.7250 14.76621055431781
